[{"OBJECT_NAME":"SENTINEL-2C","OBJECT_ID":"2024-157A","EPOCH":"2026-03-09T19:14:47.154624","MEAN_MOTION":14.30814287,"ECCENTRICITY":7.601e-5,"INCLINATION":98.5688,"RA_OF_ASC_NODE":145.0121,"ARG_OF_PERICENTER":103.4918,"MEAN_ANOMALY":256.635,"EPHEMERIS_TYPE":0,"CLASSIFICATION_TYPE":"U","NORAD_CAT_ID":60989,"ELEMENT_SET_NO":999,"REV_AT_EPOCH":7877,"BSTAR":7.7072514e-5,"MEAN_MOTION_DOT":1.58e-6,"MEAN_MOTION_DDOT":0},{"OBJECT_NAME":"FENGYUN 1C DEB","OBJECT_ID":"1999-025DPS","EPOCH":"2026-03-05T12:28:38.501184","MEAN_MOTION":14.34886846,"ECCENTRICITY":0.004832,"INCLINATION":99.0991,"RA_OF_ASC_NODE":77.6286,"ARG_OF_PERICENTER":359.4459,"MEAN_ANOMALY":152.1979,"EPHEMERIS_TYPE":0,"CLASSIFICATION_TYPE":"U","NORAD_CAT_ID":35210,"ELEMENT_SET_NO":999,"REV_AT_EPOCH":91309,"BSTAR":0.003249,"MEAN_MOTION_DOT":9.318e-5,"MEAN_MOTION_DDOT":0}]
